INTELSAT 21 (IS-21)     
1 38749U 12045A   26165.46331000 -.00000277  00000+0  00000+0 0  9995
2 38749   0.0168 326.2416 0001254 133.7853 271.5314  1.00271055 50496
INTELSAT 23 (IS-23)     
1 38867U 12057A   26165.46435001 -.00000277  00000+0  00000+0 0  9995
2 38867   0.0130 351.2754 0000360  84.7462 300.9054  1.00274536 49928
FM-6                    
1 39360U 13058A   26165.50670014 -.00000007  00000+0  00000+0 0  9997
2 39360   0.0033 352.8959 0002262 174.5462 161.4337  1.00260399 46040
INTELSAT 30 (IS-30)     
1 40271U 14062A   26165.45602998 -.00000144  00000+0  00000+0 0  9998
2 40271   0.0252  46.1874 0001338 334.1297 311.5604  1.00273006  6767
DIRECTV 14              
1 40333U 14078B   26165.45516330 -.00000118  00000+0  00000+0 0  9999
2 40333   0.0115  16.7188 0000366 251.0996  59.5513  1.00269965 42013
DIRECTV 15              
1 40663U 15026A   26165.39770822 -.00000095  00000+0  00000+0 0  9994
2 40663   0.0161  22.3915 0000229 212.7250  67.8857  1.00272048 40439
SKY MEXICO-1            
1 40664U 15026B   26165.45923667 -.00000227  00000+0  00000+0 0  9996
2 40664   0.0168 345.4930 0001957 119.2841 244.5107  1.00270840 40428
INTELSAT 34 (IS-34)     
1 40874U 15039A   26165.33100612 -.00000277  00000+0  00000+0 0  9992
2 40874   0.0103 346.8888 0000984  10.5732 328.8598  1.00278295 39608
INTELSAT 31 (IS-31)     
1 41581U 16035A   26165.34108552 -.00000143  00000+0  00000+0 0  9999
2 41581   0.0180 271.2608 0001183 332.6489  46.4769  1.00270557 36657
INTELSAT 36 (IS-36)     
1 41747U 16053A   26165.41714590 -.00000017  00000+0  00000+0 0  9996
2 41747   0.0103   0.2545 0002099 330.9327 150.1989  1.00270613 35935
INTELSAT 32E (IS-32E)   
1 41945U 17007B   26165.31989361 -.00000261  00000+0  00000+0 0  9996
2 41945   0.0011 354.0786 0000746 313.3792  27.1488  1.00269922 34193
INTELSAT 35E (IS-35E)   
1 42818U 17041A   26165.46799002  .00000000  00000+0  00000+0 0  9991
2 42818   0.0257  11.0420 0001544  69.7715 315.9399  1.00268263 32783
INTELSAT 37E (IS-37E)   
1 42950U 17059A   26165.39972582  .00000000  00000+0  00000+0 0  9995
2 42950   0.0252  13.6852 0002410  95.6197 279.3078  1.00273252 32036
AZERSPACE 2 (IS-38)     
1 43632U 18074A   26165.48376345  .00000144  00000+0  00000+0 0  9995
2 43632   0.0012  19.4465 0001161  61.3374  41.2693  1.00269365 28428
HORIZONS-3E             
1 43633U 18074B   26165.53730700 -.00000024  00000+0  00000+0 0  9999
2 43633   0.0192 164.0975 0000931 102.9448 358.2207  1.00270031 28311
AT&T T-16               
1 44333U 19034A   26164.88448873 -.00000105  00000+0  00000+0 0  9998
2 44333   0.0190  56.6301 0000887 237.6114 185.5149  1.00269989 25607
INTELSAT 39 (IS-39)     
1 44476U 19049B   26164.48900116  .00000045  00000+0  00000+0 0  9993
2 44476   0.0017 349.3933 0000876 319.9486 190.4512  1.00270508 25091
GALAXY 30 (G-30)        
1 46114U 20056C   26165.45004994  .00000044  00000+0  00000+0 0  9990
2 46114   0.0177   5.0992 0002058  79.2407 215.4260  1.00270496 21262
GALAXY 33 (G-33)        
1 54026U 22128A   26165.46332105  .00000086  00000+0  00000+0 0  9998
2 54026   0.0117 342.7761 0001594 103.4844 210.3025  1.00271044 13715
GALAXY 34 (G-34)        
1 54027U 22128B   26164.73636187  .00000069  00000+0  00000+0 0  9996
2 54027   0.0115  29.5169 0001530  67.3543 301.2703  1.00275311 13871
GALAXY 31 (G-31)        
1 54243U 22153A   26165.45082994  .00000000  00000+0  00000+0 0  9990
2 54243   0.0194  15.4452 0000984  59.7902 228.8032  1.00270207  7100
GALAXY 32 (G-32)        
1 54244U 22153B   26164.60112796 -.00000163  00000+0  00000+0 0  9992
2 54244   0.0146  26.6441 0001981   6.1350 354.5447  1.00271032 13102
GALAXY 35 (G-35)        
1 54741U 22170A   26165.45637663  .00000000  00000+0  00000+0 0  9991
2 54741   0.0200   2.0527 0001781  83.9723 247.9196  1.00269257 12867
GALAXY 36 (G-36)        
1 54742U 22170B   26165.45715666 -.00000178  00000+0  00000+0 0  9999
2 54742   0.0419 123.4342 0002465 320.0364 254.8690  1.00271039 12743
GALAXY 37 (G-37)        
1 57493U 23112A   26165.51016868  .00000055  00000+0  00000+0 0  9990
2 57493   0.0202  54.6438 0001712  25.8583 238.9650  1.00271107 10515
