OBJECT_NAME,OBJECT_ID,EPOCH,MEAN_MOTION,ECCENTRICITY,INCLINATION,RA_OF_ASC_NODE,ARG_OF_PERICENTER,MEAN_ANOMALY,EPHEMERIS_TYPE,CLASSIFICATION_TYPE,NORAD_CAT_ID,ELEMENT_SET_NO,REV_AT_EPOCH,BSTAR,MEAN_MOTION_DOT,MEAN_MOTION_DDOT
INTELSAT 21 (IS-21),2012-045A,2026-06-14T11:07:09.984000,1.00271055,.0001254,0.0168,326.2416,133.7853,271.5314,0,U,38749,999,5049,0,-.277E-5,0
INTELSAT 23 (IS-23),2012-057A,2026-06-14T11:08:39.840864,1.00274536,.000036,0.0130,351.2754,84.7462,300.9054,0,U,38867,999,4992,0,-.277E-5,0
FM-6,2013-058A,2026-06-14T12:09:38.892096,1.00260399,.0002262,0.0033,352.8959,174.5462,161.4337,0,U,39360,999,4604,0,-.7E-7,0
INTELSAT 30 (IS-30),2014-062A,2026-06-14T10:56:40.990272,1.00273006,.0001338,0.0252,46.1874,334.1297,311.5604,0,U,40271,999,676,0,-.144E-5,0
DIRECTV 14,2014-078B,2026-06-14T10:55:26.109120,1.00269965,.0000366,0.0115,16.7188,251.0996,59.5513,0,U,40333,999,4201,0,-.118E-5,0
DIRECTV 15,2015-026A,2026-06-14T09:32:41.990208,1.00272048,.0000229,0.0161,22.3915,212.7250,67.8857,0,U,40663,999,4043,0,-.95E-6,0
SKY MEXICO-1,2015-026B,2026-06-14T11:01:18.048288,1.00270840,.0001957,0.0168,345.4930,119.2841,244.5107,0,U,40664,999,4042,0,-.227E-5,0
INTELSAT 34 (IS-34),2015-039A,2026-06-14T07:56:38.928768,1.00278295,.0000984,0.0103,346.8888,10.5732,328.8598,0,U,40874,999,3960,0,-.277E-5,0
INTELSAT 31 (IS-31),2016-035A,2026-06-14T08:11:09.788928,1.00270557,.0001183,0.0180,271.2608,332.6489,46.4769,0,U,41581,999,3665,0,-.143E-5,0
INTELSAT 36 (IS-36),2016-053A,2026-06-14T10:00:41.405760,1.00270613,.0002099,0.0103,0.2545,330.9327,150.1989,0,U,41747,999,3593,0,-.17E-6,0
INTELSAT 32E (IS-32E),2017-007B,2026-06-14T07:40:38.807904,1.00269922,.0000746,0.0011,354.0786,313.3792,27.1488,0,U,41945,999,3419,0,-.261E-5,0
INTELSAT 35E (IS-35E),2017-041A,2026-06-14T11:13:54.337728,1.00268263,.0001544,0.0257,11.0420,69.7715,315.9399,0,U,42818,999,3278,0,0,0
INTELSAT 37E (IS-37E),2017-059A,2026-06-14T09:35:36.310848,1.00273252,.000241,0.0252,13.6852,95.6197,279.3078,0,U,42950,999,3203,0,0,0
AZERSPACE 2 (IS-38),2018-074A,2026-06-14T11:36:37.162080,1.00269365,.0001161,0.0012,19.4465,61.3374,41.2693,0,U,43632,999,2842,0,.144E-5,0
HORIZONS-3E,2018-074B,2026-06-14T12:53:43.324800,1.00270031,.0000931,0.0192,164.0975,102.9448,358.2207,0,U,43633,999,2831,0,-.24E-6,0
AT&T T-16,2019-034A,2026-06-13T21:13:39.826272,1.00269989,.0000887,0.0190,56.6301,237.6114,185.5149,0,U,44333,999,2560,0,-.105E-5,0
INTELSAT 39 (IS-39),2019-049B,2026-06-13T11:44:09.700224,1.00270508,.00008762,0.0017,349.3933,319.9486,190.4512,0,U,44476,999,2509,0,.45E-6,0
GALAXY 30 (G-30),2020-056C,2026-06-14T10:48:04.314816,1.00270496,.0002058,0.0177,5.0992,79.2407,215.4260,0,U,46114,999,2126,0,.44E-6,0
GALAXY 33 (G-33),2022-128A,2026-06-14T11:07:10.938720,1.00271044,.0001594,0.0117,342.7761,103.4844,210.3025,0,U,54026,999,1371,0,.86E-6,0
GALAXY 34 (G-34),2022-128B,2026-06-13T17:40:21.665568,1.00275311,.00015307,0.0115,29.5169,67.3543,301.2703,0,U,54027,999,1387,0,.69E-6,0
GALAXY 31 (G-31),2022-153A,2026-06-14T10:49:11.706816,1.00270207,.0000984,0.0194,15.4452,59.7902,228.8032,0,U,54243,999,710,0,0,0
GALAXY 32 (G-32),2022-153B,2026-06-13T14:25:37.455744,1.00271032,.0001981,0.0146,26.6441,6.1350,354.5447,0,U,54244,999,1310,0,-.163E-5,0
GALAXY 35 (G-35),2022-170A,2026-06-14T10:57:10.940832,1.00269257,.0001781,0.0200,2.0527,83.9723,247.9196,0,U,54741,999,1286,0,0,0
GALAXY 36 (G-36),2022-170B,2026-06-14T10:58:18.335424,1.00271039,.0002465,0.0419,123.4342,320.0364,254.8690,0,U,54742,999,1274,0,-.178E-5,0
GALAXY 37 (G-37),2023-112A,2026-06-14T12:14:38.573952,1.00271107,.0001712,0.0202,54.6438,25.8583,238.9650,0,U,57493,999,1051,0,.55E-6,0
